IRNSS-1F                
1 41384U 16015A   17101.09565643  .00000131  00000-0  00000-0 0  9996
2 41384   4.2973 266.7143 0020230 173.1614 186.5436  1.00276218  4066
BEIDOU IGSO 6           
1 41434U 16021A   17101.96385207 -.00000126  00000-0  10000-3 0  9990
2 41434  55.4576  73.1247 0027508 186.4510  22.8965  1.00284273  3867
IRNSS-1G                
1 41469U 16027A   17101.82769126 -.00000359  00000-0  00000-0 0  9999
2 41469   4.3693 268.0023 0001765  74.7911 284.9206  1.00276991  3571
JCSAT 2B                
1 41471U 16028A   17101.01828069 -.00000186  00000-0  00000-0 0  9994
2 41471   0.0130 153.0142 0001788 234.8654 332.1209  1.00271740  3459
THAICOM 8               
1 41552U 16031A   17101.22747326 -.00000141  00000-0  00000-0 0  9998
2 41552   0.0542  37.4989 0005352 352.2261 330.2970  1.00272583  3102
INTELSAT 31 (IS-31)     
1 41581U 16035A   17101.70816542 -.00000169  00000-0  00000-0 0  9994
2 41581   0.0153 222.3295 0001345 350.9821 146.6726  1.00271517  3061
BEIDOU G7               
1 41586U 16037A   17100.91702857 -.00000271  00000-0  00000-0 0  9990
2 41586   1.3477 315.0554 0001744 313.2510  45.6809  1.00273996  3161
ABS-2A                  
1 41588U 16038A   17101.23784122 -.00000104  00000-0  00000-0 0  9999
2 41588   0.0156 167.5544 0001917 141.7503  50.6700  1.00270557  3087
EUTELSAT 117 WEST B     
1 41589U 16038B   17100.77160995 -.00000033  00000-0  00000-0 0  9995
2 41589   0.0019  46.8556 0000249 154.9538 158.1895  1.00271554  3086
BRISAT                  
1 41591U 16039A   17101.02793878 -.00000217  00000-0  00000-0 0  9994
2 41591   0.0194 258.0294 0002040 121.1762 340.7931  1.00271424  3003
ECHOSTAR 18             
1 41592U 16039B   17100.61754421 -.00000303  00000-0  00000-0 0  9996
2 41592   0.0475  90.1729 0002514 276.2487 353.5717  1.00271130  3004
TIANTONG-1 1            
1 41725U 16048A   17101.96316667 -.00000341  00000-0  00000-0 0  9991
2 41725   4.6770 325.2549 0005625  39.2893 283.9757  1.00270231  2646
JCSAT-16                
1 41729U 16050A   17100.99596576 -.00000113  00000-0  00000-0 0  9996
2 41729   0.0236 216.9030 0002092 166.6946 336.4120  1.00270756  2445
INTELSAT 36 (IS-36)     
1 41747U 16053A   17101.25514384 -.00000045  00000-0  00000-0 0  9990
2 41747   0.0420  49.7006 0003093 317.1435 353.1517  1.00273182  2344
INTELSAT 33E (IS-33E)   
1 41748U 16053B   17101.27877730  .00000030  00000-0  00000-0 0  9993
2 41748   0.0119 218.9436 0001831 182.1913 318.8789  1.00269916  2637
INSAT-3DR               
1 41752U 16054A   17101.23974751 -.00000097  00000-0  00000-0 0  9990
2 41752   0.0355 132.7205 0007376 152.8187  74.3712  1.00273009  2197
GSAT-18                 
1 41793U 16060A   17101.24019338 -.00000097  00000-0  00000-0 0  9994
2 41793   0.0552 110.1533 0006747 334.0032 275.9116  1.00272796  1917
SKY MUSTER 2            
1 41794U 16060B   17101.04375610 -.00000265  00000-0  00000-0 0  9998
2 41794   0.0149 245.0825 0001711 136.1906 338.7251  1.00272793  1903
HIMAWARI-9              
1 41836U 16064A   17101.05489615 -.00000295  00000-0  00000-0 0  9994
2 41836   0.0203 114.2673 0000941 274.8700 330.8590  1.00273433  1568
SHIJIAN-17 (SJ-17)      
1 41838U 16065A   17101.45639142 -.00000102  00000-0  00000-0 0  9990
2 41838   0.0558  67.9350 0007867  24.4389  74.9097  1.00266861  1605
GOES 16                 
1 41866U 16071A   17100.69553757 -.00000203  00000-0  00000-0 0  9992
2 41866   0.0040 179.4502 0002173 212.0416 328.5212  1.00269581  1475
TIANLIAN 1-04           
1 41869U 16072A   17101.94396909 -.00000129  00000-0  00000-0 0  9996
2 41869   2.7941 290.3361 0005605 122.2494 204.5597  1.00271500  1680
FENGYUN 4A              
1 41882U 16077A   17101.98407544 -.00000318  00000-0  00000-0 0  9998
2 41882   0.1462 269.3635 0002924 233.2198 151.5197  1.00266069  1355
ECHOSTAR 19             
1 41893U 16079A   17100.71661143 -.00000159  00000-0  00000-0 0  9992
2 41893   0.0210 119.9143 0001895 261.9070 338.1771  1.00271434  1098
STAR ONE D1             
1 41904U 16082B   17100.68033219 -.00000232  00000-0  00000-0 0  9994
2 41904   0.0362  98.4556 0002515 307.1562 314.3989  1.00271570  1141
TJS-2                   
1 41911U 17001A   17101.96051279 -.00000361  00000-0  00000-0 0  9995
2 41911   0.8192 279.9183 0001813 176.5792 197.1446  1.00267723  1109
HISPASAT 36W-1          
1 41942U 17006A   17101.51684306 -.00000212  00000-0  00000-0 0  9993
2 41942   0.0331 147.4068 0002764 217.9579 354.6307  1.00272722   616
TELKOM 3S               
1 41944U 17007A   17101.11785925 -.00000383  00000-0  00000-0 0  9990
2 41944   0.0471  59.8516 0000591   2.2828 297.8628  1.00271265   519
INTELSAT 32E (IS-32E)   
1 41945U 17007B   17100.56720956 -.00000291  00000-0  00000-0 0  9990
2 41945   0.0120 230.8744 0000321 313.5189 175.5963  1.00272467   614
